ORBCOMM FM24 [-]        
1 25478U 98053D   24101.83702217  .00001053  00000+0  41166-3 0  9998
2 25478  45.0078 154.9188 0003173 247.8658 112.1853 14.35476343335262
ORBCOMM FM25 [-]        
1 25479U 98053E   24101.87248758  .00001049  00000+0  41024-3 0  9996
2 25479  45.0068 152.9930 0005751 248.9707 111.0525 14.35457716335566
ORBCOMM FM26 [-]        
1 25480U 98053F   24101.79813794  .00000817  00000+0  33375-3 0  9999
2 25480  45.0063 147.3396 0007867 263.0865  96.9087 14.34925248335495
ORBCOMM FM27 [+]        
1 25481U 98053G   24101.92987447  .00001085  00000+0  42298-3 0  9994
2 25481  45.0052 152.9867 0001982 270.1153  89.9467 14.35438959335505
ORBCOMM FM28 [-]        
1 25482U 98053H   24101.36888959  .00001155  00000+0  44318-3 0  9994
2 25482  45.0059  94.2027 0005956 291.6536  68.3677 14.35879104336097
ORBCOMM FM30 [-]        
1 25980U 99065A   24101.90221151  .00001011  00000+0  40051-3 0  9997
2 25980  45.0328 332.3494 0006372   5.4334 354.6581 14.35071193272303
ORBCOMM FM31 [-]        
1 25981U 99065B   24101.93742412  .00000955  00000+0  38091-3 0  9996
2 25981  45.0241 325.8967 0003540  30.6017 329.5036 14.35075049271862
ORBCOMM FM32 [+]        
1 25982U 99065C   24101.96738826  .00000964  00000+0  39184-3 0  9998
2 25982  45.0174 339.3466 0006097  30.4843 329.6358 14.34045985272502
